OBJECT_NAME,OBJECT_ID,EPOCH,MEAN_MOTION,ECCENTRICITY,INCLINATION,RA_OF_ASC_NODE,ARG_OF_PERICENTER,MEAN_ANOMALY,EPHEMERIS_TYPE,CLASSIFICATION_TYPE,NORAD_CAT_ID,ELEMENT_SET_NO,REV_AT_EPOCH,BSTAR,MEAN_MOTION_DOT,MEAN_MOTION_DDOT
METEOSAT-11 (MSG-4),2015-034A,2026-03-01T08:50:38.692032,1.00265141,.0001794,2.9298,71.7010,270.4204,319.1619,0,U,40732,999,613,0,.45E-6,0
GSAT0205 (GALILEO 9),2015-045A,2026-02-12T22:54:15.154848,1.67410800,.03595998,53.6403,225.6057,59.9658,303.5577,0,U,40889,999,6421,0,.78E-6,0
GSAT0206 (GALILEO 10),2015-045B,2026-02-28T22:32:28.822272,1.70473640,.0003875,54.9818,224.5901,49.7770,310.2097,0,U,40890,999,6519,0,.21E-6,0
GPS BIIF-11,2015-062A,2026-03-01T02:04:02.445888,2.00567016,.0111464,56.8906,34.9758,231.4723,127.5197,0,U,41019,999,7566,0,-.61E-6,0
ELEKTRO-L 2,2015-074A,2026-03-01T08:57:03.678336,1.00270670,.0003479,6.4225,71.8480,234.1402,332.9412,0,U,41105,999,3742,0,-.133E-5,0
GSAT0209 (GALILEO 12),2015-079A,2026-02-26T18:15:53.059392,1.70474460,.00047705,55.7556,104.2904,323.2858,36.7546,0,U,41174,999,6289,0,.3E-7,0
GSAT0208 (GALILEO 11),2015-079B,2026-02-25T19:23:37.838976,1.70474379,.000363,55.7531,104.3136,328.1967,31.8517,0,U,41175,999,6329,0,.1E-7,0
GPS BIIF-12,2016-007A,2026-03-01T04:06:46.317024,2.00556836,.00953512,55.4534,93.7411,245.9160,113.1547,0,U,41328,999,7367,0,.2E-6,0
GSAT0211 (GALILEO 14),2016-030A,2026-02-28T20:45:35.107488,1.70473700,.00036129,55.1331,224.6708,25.8788,334.0929,0,U,41549,999,6082,0,.22E-6,0
GSAT0210 (GALILEO 13),2016-030B,2026-02-27T08:42:03.198528,1.70473795,.00010813,55.1319,224.7103,189.8434,170.1193,0,U,41550,999,6079,0,.38E-6,0
INSAT-3DR,2016-054A,2026-03-01T09:22:23.748096,1.00272042,.0013478,0.0387,98.2193,183.1379,92.3948,0,U,41752,999,3473,0,-.95E-6,0
GSAT0207 (GALILEO 15),2016-069A,2026-02-28T05:27:34.324704,1.70474383,.00050316,55.4267,104.1007,309.1503,50.8842,0,U,41859,999,5754,0,.8E-7,0
GSAT0212 (GALILEO 16),2016-069B,2026-02-27T11:52:00.727968,1.70474549,.00035416,55.4238,104.1162,336.3420,23.7177,0,U,41860,999,5778,0,.5E-7,0
GSAT0213 (GALILEO 17),2016-069C,2026-02-27T06:36:27.411264,1.70474834,.00051302,55.4260,104.1303,291.6331,68.3872,0,U,41861,999,5764,0,.4E-7,0
GSAT0214 (GALILEO 18),2016-069D,2026-02-28T00:11:27.536640,1.70474701,.00041329,55.4250,104.1026,296.1582,63.8775,0,U,41862,999,5778,0,.7E-7,0
GOES 16,2016-071A,2026-03-01T09:34:37.927776,1.00270100,.0002603,0.1396,90.4038,214.4077,253.3320,0,U,41866,999,3402,0,-.109E-5,0
GSAT-17,2017-040B,2026-03-01T12:17:28.090752,1.00270714,.0005311,0.0435,290.9974,354.8478,151.3324,0,U,42815,999,3170,0,-.276E-5,0
GSAT0215 (GALILEO 19),2017-079A,2026-02-27T21:52:25.630464,1.70474334,.0000662,55.1102,224.5103,18.6698,341.2932,0,U,43055,999,5112,0,.32E-6,0
GSAT0216 (GALILEO 20),2017-079B,2026-02-28T04:51:47.131776,1.70474475,.0001682,55.1093,224.5024,323.3760,36.5709,0,U,43056,999,5114,0,.28E-6,0
GSAT0217 (GALILEO 21),2017-079C,2026-02-27T20:04:59.800800,1.70474377,.00020789,55.1101,224.5102,358.4163,1.5441,0,U,43057,999,5112,0,.33E-6,0
GSAT0218 (GALILEO 22),2017-079D,2026-03-01T05:31:11.512704,1.70474409,.0001889,55.1053,224.4697,305.5636,54.3694,0,U,43058,999,5117,0,.18E-6,0
GOES 17,2018-022A,2026-03-01T10:23:17.765664,1.00270589,.0002408,0.6603,87.6177,216.9710,280.9615,0,U,43226,999,2934,0,-.2E-5,0
GSAT0221 (GALILEO 25),2018-060A,2026-02-28T13:07:14.911104,1.70475369,.00058048,57.2051,344.7173,306.7848,53.1689,0,U,43564,999,4731,0,-.105E-5,0
GSAT0222 (GALILEO 26),2018-060B,2026-02-24T15:50:30.088608,1.70474973,.0004435,57.2093,344.8256,285.4820,74.4799,0,U,43565,999,4729,0,-.92E-6,0
GSAT0219 (GALILEO 23),2018-060C,2026-02-22T12:50:02.521824,1.70475208,.0005774,57.2094,344.8846,308.6957,51.2673,0,U,43566,999,4723,0,-.82E-6,0
GSAT0220 (GALILEO 24),2018-060D,2026-02-27T10:45:41.962176,1.70475159,.0005301,57.2075,344.7516,308.5821,51.3768,0,U,43567,999,4730,0,-.102E-5,0
BEIDOU-3 M13,2018-072A,2026-03-01T01:42:05.899104,1.86230830,.00088377,56.5296,66.2261,307.1015,52.8563,0,U,43622,999,5064,0,-.1E-7,0
BEIDOU-3 M14,2018-072B,2026-02-28T09:35:08.736288,1.86230836,.0006323,56.5307,66.2423,328.2609,31.7411,0,U,43623,999,5062,0,.2E-7,0
GPS BIII-1,2018-109A,2026-03-01T06:02:06.000576,2.00556460,.0037866,55.6128,96.4437,198.2214,112.1971,0,U,43873,999,5290,0,.21E-6,0
METEOR-M2 2,2019-038A,2026-03-01T13:20:44.280384,14.24330665,.0001329,98.9070,46.2959,18.1438,341.9787,0,U,44387,999,34597,.12399E-3,.241E-5,0
GPS BIII-2,2019-056A,2026-03-01T04:44:28.805568,2.00568051,.00580161,55.6862,335.4369,198.2399,333.4311,0,U,44506,999,4790,0,-.96E-6,0
